{
  "norad_id": 66444,
  "name": "STARLINK-35360",
  "history": [
    {
      "epoch": "2026-04-13T04:52:39.552384Z",
      "apogee_km": 484.141119494313,
      "perigee_km": 482.23284806794345,
      "latitude_deg": 3.0541745300196604e-05,
      "longitude_deg": 164.5179437110789,
      "height_km": 483.20720923500005,
      "semi_major_axis_km": 6861.323983781128,
      "eccentricity": 0.00013906,
      "inclination_deg": 42.9999,
      "raan_deg": 79.0801,
      "arg_perigee_deg": 255.2072,
      "mean_anomaly_deg": 104.8626,
      "mean_motion_rev_day": 15.27533952
    },
    {
      "epoch": "2026-04-14T09:07:29.130528Z",
      "apogee_km": 484.18521779202456,
      "perigee_km": 481.8392536453475,
      "latitude_deg": -5.2566333888082565e-05,
      "longitude_deg": 93.00701314644769,
      "height_km": 482.8088811202734,
      "semi_major_axis_km": 6861.149235718686,
      "eccentricity": 0.00017096,
      "inclination_deg": 43.0026,
      "raan_deg": 72.4359,
      "arg_perigee_deg": 269.0522,
      "mean_anomaly_deg": 91.0133,
      "mean_motion_rev_day": 15.2759231
    },
    {
      "epoch": "2026-04-15T07:05:39.662880Z",
      "apogee_km": 484.170268724376,
      "perigee_km": 481.7729973679898,
      "latitude_deg": 2.060355111321886e-05,
      "longitude_deg": 117.3897488013757,
      "height_km": 482.8067926300918,
      "semi_major_axis_km": 6861.108633046182,
      "eccentricity": 0.0001747,
      "inclination_deg": 43.0026,
      "raan_deg": 67.2647,
      "arg_perigee_deg": 267.2311,
      "mean_anomaly_deg": 92.8341,
      "mean_motion_rev_day": 15.2760587
    },
    {
      "epoch": "2026-04-16T20:45:24.441408Z",
      "apogee_km": 484.1465885914158,
      "perigee_km": 481.7644172743967,
      "latitude_deg": -2.6972772569789865e-05,
      "longitude_deg": -97.95811747416876,
      "height_km": 482.9264895220999,
      "semi_major_axis_km": 6861.0925029329055,
      "eccentricity": 0.0001736,
      "inclination_deg": 43.0017,
      "raan_deg": 58.4002,
      "arg_perigee_deg": 260.6324,
      "mean_anomaly_deg": 99.4331,
      "mean_motion_rev_day": 15.27611257
    },
    {
      "epoch": "2026-04-17T21:51:54.391680Z",
      "apogee_km": 484.2229407108216,
      "perigee_km": 481.8220837742974,
      "latitude_deg": -1.1910680152097993e-05,
      "longitude_deg": -121.52015494341177,
      "height_km": 482.7896746389409,
      "semi_major_axis_km": 6861.159512242559,
      "eccentricity": 0.00017496,
      "inclination_deg": 43.0037,
      "raan_deg": 52.4941,
      "arg_perigee_deg": 270.4885,
      "mean_anomaly_deg": 89.5766,
      "mean_motion_rev_day": 15.27588878
    }
  ]
}